{"type": "FeatureCollection", "features": [ {"type": "Feature", "properties": {"norad_id": 39155, "name": "COSMOS 2485 (747)", "group": "glo-ops", "lat": 65.27163367606707, "lon": 164.94354768478345, "alt_km": 19173.380104514796, "timestamp": "2025-12-26T19:22:39.167793+00:00", "meta": {"OBJECT_NAME": "COSMOS 2485 (747)", "OBJECT_ID": "2013-019A", "EPOCH": "2025-12-25T06:49:20.356032", "MEAN_MOTION": 2.13103209, "ECCENTRICITY": 0.00250108, "INCLINATION": 65.3197, "RA_OF_ASC_NODE": 79.4456, "ARG_OF_PERICENTER": 230.5627, "MEAN_ANOMALY": 129.2639, "EPHEMERIS_TYPE": 0, "CLASSIFICATION_TYPE": "U", "NORAD_CAT_ID": 39155, "ELEMENT_SET_NO": 999, "REV_AT_EPOCH": 9857, "BSTAR": 0, "MEAN_MOTION_DOT": 0, "MEAN_MOTION_DDOT": 0}, "tle": {"line1": "1 39155U 13019A   25359.28426338  .00000000  00000+0  00000+0 0  9995", "line2": "2 39155  65.3197  79.4456 0025010 230.5627 129.2639  2.13103209 98576"}}, "geometry": {"type": "Point", "coordinates": [164.94354768478345, 65.27163367606707]}}, {"type": "Feature", "properties": {"norad_id": 39620, "name": "COSMOS 2492 (754)", "group": "glo-ops", "lat": 51.78256384242334, "lon": 104.2311644910815, "alt_km": 19159.45974765516, "timestamp": "2025-12-26T19:22:39.167804+00:00", "meta": {"OBJECT_NAME": "COSMOS 2492 (754)", "OBJECT_ID": "2014-012A", "EPOCH": "2025-12-26T04:21:11.805696", "MEAN_MOTION": 2.13103325, "ECCENTRICITY": 0.00143205, "INCLINATION": 65.4004, "RA_OF_ASC_NODE": 319.8153, "ARG_OF_PERICENTER": 314.0587, "MEAN_ANOMALY": 45.8272, "EPHEMERIS_TYPE": 0, "CLASSIFICATION_TYPE": "U", "NORAD_CAT_ID": 39620, "ELEMENT_SET_NO": 999, "REV_AT_EPOCH": 9155, "BSTAR": 0, "MEAN_MOTION_DOT": -3.3e-07, "MEAN_MOTION_DDOT": 0}, "tle": {"line1": "1 39620U 14012A   25360.18138664 -.00000033  00000+0  00000+0 0  9996", "line2": "2 39620  65.4004 319.8153 0014320 314.0587  45.8272  2.13103325 91557"}}, "geometry": {"type": "Point", "coordinates": [104.2311644910815, 51.78256384242334]}}, {"type": "Feature", "properties": {"norad_id": 40001, "name": "COSMOS 2500 (755)", "group": "glo-ops", "lat": -10.616518989300681, "lon": -45.39621528066535, "alt_km": 19143.601535771355, "timestamp": "2025-12-26T19:22:39.167815+00:00", "meta": {"OBJECT_NAME": "COSMOS 2500 (755)", "OBJECT_ID": "2014-032A", "EPOCH": "2025-12-26T08:28:54.444288", "MEAN_MOTION": 2.13106178, "ECCENTRICITY": 0.00076191, "INCLINATION": 65.3358, "RA_OF_ASC_NODE": 319.5702, "ARG_OF_PERICENTER": 219.616, "MEAN_ANOMALY": 140.3327, "EPHEMERIS_TYPE": 0, "CLASSIFICATION_TYPE": "U", "NORAD_CAT_ID": 40001, "ELEMENT_SET_NO": 999, "REV_AT_EPOCH": 8977, "BSTAR": 0, "MEAN_MOTION_DOT": -3.4e-07, "MEAN_MOTION_DDOT": 0}, "tle": {"line1": "1 40001U 14032A   25360.35340792 -.00000034  00000+0  00000+0 0  9990", "line2": "2 40001  65.3358 319.5702 0007619 219.6160 140.3327  2.13106178 89772"}}, "geometry": {"type": "Point", "coordinates": [-45.39621528066535, -10.616518989300681]}}, {"type": "Feature", "properties": {"norad_id": 40315, "name": "COSMOS 2501 (702K)", "group": "glo-ops", "lat": 27.744607984220018, "lon": 1.200092455632676, "alt_km": 19097.53304770261, "timestamp": "2025-12-26T19:22:39.167826+00:00", "meta": {"OBJECT_NAME": "COSMOS 2501 (702K)", "OBJECT_ID": "2014-075A", "EPOCH": "2025-12-26T03:27:24.522048", "MEAN_MOTION": 2.13101463, "ECCENTRICITY": 0.00200844, "INCLINATION": 63.6159, "RA_OF_ASC_NODE": 196.3605, "ARG_OF_PERICENTER": 203.9081, "MEAN_ANOMALY": 156.0501, "EPHEMERIS_TYPE": 0, "CLASSIFICATION_TYPE": "U", "NORAD_CAT_ID": 40315, "ELEMENT_SET_NO": 999, "REV_AT_EPOCH": 8616, "BSTAR": 0, "MEAN_MOTION_DOT": 1.12e-06, "MEAN_MOTION_DDOT": 0}, "tle": {"line1": "1 40315U 14075A   25360.14403382  .00000112  00000+0  00000+0 0  9993", "line2": "2 40315  63.6159 196.3605 0020084 203.9081 156.0501  2.13101463 86162"}}, "geometry": {"type": "Point", "coordinates": [1.200092455632676, 27.744607984220018]}}, {"type": "Feature", "properties": {"norad_id": 41330, "name": "COSMOS 2514 (751)", "group": "glo-ops", "lat": 17.18696302093303, "lon": 130.6645613210143, "alt_km": 19113.00314074509, "timestamp": "2025-12-26T19:22:39.167837+00:00", "meta": {"OBJECT_NAME": "COSMOS 2514 (751)", "OBJECT_ID": "2016-008A", "EPOCH": "2025-12-26T03:04:28.077600", "MEAN_MOTION": 2.13102515, "ECCENTRICITY": 0.00115224, "INCLINATION": 65.126, "RA_OF_ASC_NODE": 318.9457, "ARG_OF_PERICENTER": 220.0095, "MEAN_ANOMALY": 139.91, "EPHEMERIS_TYPE": 0, "CLASSIFICATION_TYPE": "U", "NORAD_CAT_ID": 41330, "ELEMENT_SET_NO": 999, "REV_AT_EPOCH": 7693, "BSTAR": 0, "MEAN_MOTION_DOT": -3.4e-07, "MEAN_MOTION_DDOT": 0}, "tle": {"line1": "1 41330U 16008A   25360.12810275 -.00000034  00000+0  00000+0 0  9994", "line2": "2 41330  65.1260 318.9457 0011522 220.0095 139.9100  2.13102515 76937"}}, "geometry": {"type": "Point", "coordinates": [130.6645613210143, 17.18696302093303]}}, {"type": "Feature", "properties": {"norad_id": 42939, "name": "COSMOS 2522 (752)", "group": "glo-ops", "lat": -60.18816867804546, "lon": 139.63106033893413, "alt_km": 19128.751367248493, "timestamp": "2025-12-26T19:22:39.167848+00:00", "meta": {"OBJECT_NAME": "COSMOS 2522 (752)", "OBJECT_ID": "2017-055A", "EPOCH": "2025-12-25T23:11:37.074048", "MEAN_MOTION": 2.13102023, "ECCENTRICITY": 0.00062782, "INCLINATION": 64.0768, "RA_OF_ASC_NODE": 197.7784, "ARG_OF_PERICENTER": 223.1458, "MEAN_ANOMALY": 136.8589, "EPHEMERIS_TYPE": 0, "CLASSIFICATION_TYPE": "U", "NORAD_CAT_ID": 42939, "ELEMENT_SET_NO": 999, "REV_AT_EPOCH": 6428, "BSTAR": 0, "MEAN_MOTION_DOT": 1.1e-06, "MEAN_MOTION_DDOT": 0}, "tle": {"line1": "1 42939U 17055A   25359.96640132  .00000110  00000+0  00000+0 0  9990", "line2": "2 42939  64.0768 197.7784 0006278 223.1458 136.8589  2.13102023 64285"}}, "geometry": {"type": "Point", "coordinates": [139.63106033893413, -60.18816867804546]}}, {"type": "Feature", "properties": {"norad_id": 43508, "name": "COSMOS 2527 (756)", "group": "glo-ops", "lat": -39.86465006352832, "lon": 57.29988520275068, "alt_km": 19133.37891009882, "timestamp": "2025-12-26T19:22:39.167860+00:00", "meta": {"OBJECT_NAME": "COSMOS 2527 (756)", "OBJECT_ID": "2018-053A", "EPOCH": "2025-12-25T22:15:18.516960", "MEAN_MOTION": 2.13102285, "ECCENTRICITY": 0.00091278, "INCLINATION": 65.4787, "RA_OF_ASC_NODE": 79.6912, "ARG_OF_PERICENTER": 228.9036, "MEAN_ANOMALY": 131.0649, "EPHEMERIS_TYPE": 0, "CLASSIFICATION_TYPE": "U", "NORAD_CAT_ID": 43508, "ELEMENT_SET_NO": 999, "REV_AT_EPOCH": 5858, "BSTAR": 0, "MEAN_MOTION_DOT": -3e-08, "MEAN_MOTION_DDOT": 0}, "tle": {"line1": "1 43508U 18053A   25359.92729765 -.00000003  00000+0  00000+0 0  9990", "line2": "2 43508  65.4787  79.6912 0009127 228.9036 131.0649  2.13102285 58586"}}, "geometry": {"type": "Point", "coordinates": [57.29988520275068, -39.86465006352832]}}, {"type": "Feature", "properties": {"norad_id": 43687, "name": "COSMOS 2529 (757)", "group": "glo-ops", "lat": -51.61473195620584, "lon": 55.88578625950598, "alt_km": 19118.614957103317, "timestamp": "2025-12-26T19:22:39.167871+00:00", "meta": {"OBJECT_NAME": "COSMOS 2529 (757)", "OBJECT_ID": "2018-086A", "EPOCH": "2025-12-23T05:01:04.327104", "MEAN_MOTION": 2.13102131, "ECCENTRICITY": 0.0006897, "INCLINATION": 64.2927, "RA_OF_ASC_NODE": 198.5346, "ARG_OF_PERICENTER": 253.659, "MEAN_ANOMALY": 106.3281, "EPHEMERIS_TYPE": 0, "CLASSIFICATION_TYPE": "U", "NORAD_CAT_ID": 43687, "ELEMENT_SET_NO": 999, "REV_AT_EPOCH": 5553, "BSTAR": 0, "MEAN_MOTION_DOT": 9.5e-07, "MEAN_MOTION_DDOT": 0}, "tle": {"line1": "1 43687U 18086A   25357.20907786  .00000095  00000+0  00000+0 0  9994", "line2": "2 43687  64.2927 198.5346 0006897 253.6590 106.3281  2.13102131 55539"}}, "geometry": {"type": "Point", "coordinates": [55.88578625950598, -51.61473195620584]}}, {"type": "Feature", "properties": {"norad_id": 44299, "name": "COSMOS 2534 (758)", "group": "glo-ops", "lat": 13.464404586270451, "lon": -154.9741290483934, "alt_km": 19129.062427604767, "timestamp": "2025-12-26T19:22:39.167882+00:00", "meta": {"OBJECT_NAME": "COSMOS 2534 (758)", "OBJECT_ID": "2019-030A", "EPOCH": "2025-12-26T02:10:04.232064", "MEAN_MOTION": 2.13102148, "ECCENTRICITY": 0.00086162, "INCLINATION": 64.3664, "RA_OF_ASC_NODE": 198.4428, "ARG_OF_PERICENTER": 283.8414, "MEAN_ANOMALY": 260.9701, "EPHEMERIS_TYPE": 0, "CLASSIFICATION_TYPE": "U", "NORAD_CAT_ID": 44299, "ELEMENT_SET_NO": 999, "REV_AT_EPOCH": 5123, "BSTAR": 0, "MEAN_MOTION_DOT": 1.1e-06, "MEAN_MOTION_DDOT": 0}, "tle": {"line1": "1 44299U 19030A   25360.09032676  .00000110  00000+0  00000+0 0  9990", "line2": "2 44299  64.3664 198.4428 0008616 283.8414 260.9701  2.13102148 51234"}}, "geometry": {"type": "Point", "coordinates": [-154.9741290483934, 13.464404586270451]}}, {"type": "Feature", "properties": {"norad_id": 44850, "name": "COSMOS 2544 (759)", "group": "glo-ops", "lat": -2.08545722726366, "lon": 78.54777302087723, "alt_km": 19141.477196603075, "timestamp": "2025-12-26T19:22:39.167893+00:00", "meta": {"OBJECT_NAME": "COSMOS 2544 (759)", "OBJECT_ID": "2019-088A", "EPOCH": "2025-12-25T20:55:29.447904", "MEAN_MOTION": 2.13102067, "ECCENTRICITY": 0.00144287, "INCLINATION": 65.4663, "RA_OF_ASC_NODE": 79.5196, "ARG_OF_PERICENTER": 250.7311, "MEAN_ANOMALY": 109.1604, "EPHEMERIS_TYPE": 0, "CLASSIFICATION_TYPE": "U", "NORAD_CAT_ID": 44850, "ELEMENT_SET_NO": 999, "REV_AT_EPOCH": 4702, "BSTAR": 0, "MEAN_MOTION_DOT": -3e-08, "MEAN_MOTION_DDOT": 0}, "tle": {"line1": "1 44850U 19088A   25359.87186861 -.00000003  00000+0  00000+0 0  9998", "line2": "2 44850  65.4663  79.5196 0014428 250.7311 109.1604  2.13102067 47024"}}, "geometry": {"type": "Point", "coordinates": [78.54777302087723, -2.08545722726366]}}]}